IXPE                    
1 49954U 21121A   23323.41070421  .00004167  00000+0  29609-3 0  9996
2 49954   0.2277 154.0144 0009888  35.9124 170.0532 14.95509258106268
